"addressId;""houseNo"";""societyName"";""streetNo"";""landmark"";""district"";""subDistrict"";""city"";""state"";""country"";""pinCode"""
"1;""2"";""Paunsford"";""81275"";""Petterle"";""Northport"";""Montana"";""Goba"";""Alqu?zar"";""Ethiopia"";""792"""
"2;""2"";""Pavlishchev"";""0330"";""SaintPaul"";""Transport"";""Killdeer"";""Krasnoznamensk"";""F?gl?"";""Russia"";""6"""
"3;""23143"";""Marchington"";""53"";""Mallard"";""Bay"";""Graceland"";""Hashimoto"";""Mallaw?"";""Japan"";""444"""
"4;""06"";""Klaffs"";""88"";""Sauthoff"";""Atwood"";""Caliangt"";""Misheronskiy"";""Bascaron"";""Russia"";""7820"""
"5;""708"";""McVicker"";""1738"";""Gulseth"";""GreenRidge"";""Portage"";""Sukorejo"";""Saidpur"";""Indonesia"";""99"""
"6;""7378"";""Zaniolini"";""11104"";""Hoard"";""DelSol"";""Gulseth"";""Xiangrong"";""Sindang"";""China"";""4406"""
"7;""88282"";""Bresnahan"";""8136"";""Lawn"";""Columbus"";""Erie"";""Wonopringgo"";""HradecnadMoravici"";""Indonesia"";""38"""
"8;""46"";""Eriksson"";""5127"";""Talmadge"";""Aberg"";""Shelley"";""AguasCorrientes"";""RioBranco"";""Uruguay"";""9"""
"9;""57"";""Wiltshier"";""11193"";""Bluestem"";""Armistice"";""Lawn"";""Randu"";""Bronx"";""Indonesia"";""53"""
"10;""50169"";""Callander"";""6103"";""Derek"";""Forest"";""GoldenLeaf"";""Temenggungan"";""Gllogjan"";""Indonesia"";""992"""
"11;""34"";""Bevan"";""70344"";""Becker"";""Carberry"";""Jenifer"";""Shijing"";""Bronx"";""China"";""9016"""
"12;""2202"";""Condit"";""8720"";""Grim"";""Steensland"";""Toban"";""SanCarlosdeBariloche"";""Ubiaja"";""Argentina"";""02114"""
"13;""04"";""Coat"";""5465"";""Fordem"";""Vera"";""LakewoodGardens"";""LaLuz"";""Lewopao"";""Venezuela"";""4652"""
"14;""11909"";""Monkhouse"";""82903"";""Muir"";""Summerview"";""Reindahl"";""Eldoret"";""Khasavyurt"";""Kenya"";""63"""
"15;""964"";""Villa"";""284"";""Bultman"";""Texas"";""East"";""Dasha"";""Dubna"";""China"";""9"""
"16;""55"";""Rubinfajn"";""87"";""Warner"";""Southridge"";""Fremont"";""Sumberjati"";""Tiandian"";""Indonesia"";""58068"""
"17;""3"";""Chilles"";""61"";""Sullivan"";""Truax"";""Coolidge"";""Zhengcun"";""Brusartsi"";""China"";""368"""
"18;""56734"";""Dobrowolny"";""2"";""Mcbride"";""Bartillon"";""Petterle"";""NuevaRequena"";""Osieck"";""Peru"";""487"""
"19;""149"";""Blues"";""409"";""Thompson"";""Dexter"";""Killdeer"";""Montpellier"";""Pampamarca"";""France"";""7355"""
"20;""3995"";""Caplin"";""0883"";""Emmet"";""MeadowVale"";""Caliangt"";""Tengah"";""Lawrenceville"";""Indonesia"";""299"""
"21;""282"";""Leland"";""59"";""Arrowood"";""Dapin"";""Warbler"";""Mouzour?s"";""Atiquizaya"";""Greece"";""5050"""
"22;""7459"";""Alsina"";""096"";""Heath"";""Debra"";""Namekagon"";""Montlu?on"";""BrejoSanto"";""France"";""03"""
"23;""03742"";""Defew"";""30994"";""Brentwood"";""Shopko"";""Dexter"";""WulanHada"";""Str??eni"";""China"";""93252"""
"24;""81"";""Fincher"";""1"";""Kings"";""Eastlawn"";""Independence"";""Morocel?"";""Kenscoff"";""Honduras"";""641"""
"25;""22"";""Drinkhall"";""22986"";""Johnson"";""Bayside"";""Farmco"";""Aryiropo?lion"";""Ocongate"";""Greece"";""675"""
"26;""9"";""McLemon"";""9476"";""Vermont"";""Garrison"";""StoneCorner"";""P’rimorsk’oe"";""Al?aw?mid?yah"";""Georgia"";""03434"""
"27;""996"";""Quadri"";""62"";""Garrison"";""GoldenLeaf"";""Gale"";""Kipen’"";""Bergen"";""Russia"";""8528"""
"28;""9"";""Varrow"";""20"";""ValleyEdge"";""Mayfield"";""Warbler"";""AzZuwayt?nah"";""Germiston"";""Libya"";""942"""
"29;""26"";""Plume"";""46008"";""Springview"";""Oxford"";""Canary"";""Brody"";""Sinabang"";""Poland"";""13238"""
"30;""33441"";""Hoonahan"";""81"";""Elka"";""Vera"";""Sauthoff"";""Uttaradit"";""Kiev"";""Thailand"";""847"""
"31;""1"";""Shapter"";""5"";""Randy"";""Steensland"";""BricksonPark"";""Ph?Kh??ng"";""Arnhem"";""Vietnam"";""3151"""
"32;""431"";""Cottham"";""197"";""Maryland"";""JohnWall"";""Golf"";""Xinbao"";""Feikeng"";""China"";""96353"""
"33;""09570"";""Barkly"";""1518"";""Sachs"";""Evergreen"";""Rieder"";""Tieremu"";""Luksuhin"";""China"";""2047"""
"34;""56"";""Riveles"";""9843"";""Cascade"";""Anniversary"";""Daystar"";""Boto"";""RioClaro"";""Indonesia"";""27491"""
"35;""34"";""Waterfall"";""00758"";""Barnett"";""Logan"";""Upham"";""Liv?dion"";""Edine?"";""Greece"";""7101"""
"36;""2"";""Matiashvili"";""5803"";""Huxley"";""Vera"";""Coleman"";""SapuPadidu"";""NaikotenDua"";""Philippines"";""1"""
"37;""01"";""Craggs"";""0"";""Pearson"";""Kingsford"";""Burrows"";""PetitValley"";""Sansann?-Mango"";""TrinidadandTobago"";""3"""
"38;""75033"";""Tomkies"";""3225"";""Maple"";""Dawn"";""Melrose"";""Jizhou"";""Halat"";""China"";""69"""
"39;""26236"";""Drinkhall"";""16034"";""Westend"";""Starling"";""Beilfuss"";""Merkl?n"";""Topdac"";""CzechRepublic"";""3586"""
"40;""579"";""Biggans"";""7"";""Darwin"";""David"";""Riverside"";""Iwanuma"";""Nanshui"";""Japan"";""4"""
"41;""9547"";""Cancellario"";""4"";""Glendale"";""Nova"";""Schurz"";""G?theio"";""Tumpukrenteng"";""Greece"";""4758"""
"42;""1090"";""Jersch"";""81617"";""Farmco"";""Independence"";""Eliot"";""Zambujal"";""Khotiv"";""Portugal"";""1"""
"43;""9"";""Putterill"";""7970"";""Manufacturers"";""Gateway"";""Division"";""Wangfu"";""Paracatu"";""China"";""520"""
"44;""8056"";""Kaminski"";""1"";""Vernon"";""Scoville"";""Killdeer"";""Bagani"";""Ko?enov"";""Namibia"";""264"""
"45;""7562"";""Vasin"";""8"";""Oak"";""Sutherland"";""Dovetail"";""Zaprudnya"";""ButubutNorte"";""Russia"";""5163"""
"46;""365"";""Bettis"";""0"";""Bartelt"";""Carberry"";""LaFollette"";""Guanting"";""Leit?es"";""China"";""50646"""
"47;""164"";""Boliver"";""958"";""Quincy"";""LighthouseBay"";""HollowRidge"";""Tomislavgrad"";""Tarbes"";""BosniaandHerzegovina"";""0599"""
"48;""81780"";""Kenset"";""7"";""Drewry"";""Pankratz"";""ForestRun"";""AlorStar"";""Bator"";""Malaysia"";""336"""
"49;""14136"";""Realff"";""63625"";""Lunder"";""Logan"";""Bellgrove"";""Ljungsbro"";""Sinmak"";""Sweden"";""3"""
"50;""0906"";""Blatcher"";""99206"";""EagleCrest"";""Hoard"";""Cherokee"";""Mayskiy"";""KristiansandS"";""Russia"";""696"""
